{
  "norad_id": 54129,
  "name": "ONEWEB-0511",
  "history": [
    {
      "epoch": "2026-03-28T20:59:25.213632",
      "apogee_km": 1187.0112182985758,
      "perigee_km": 1184.5452306570905,
      "latitude_deg": 61.67548980516334,
      "longitude_deg": 36.86134847998619,
      "semi_major_axis_km": 7563.915224477832,
      "eccentricity": 0.00016301,
      "inclination_deg": 87.9207,
      "raan_deg": 320.9732,
      "arg_perigee_deg": 93.8488,
      "mean_anomaly_deg": 266.2832,
      "mean_motion_rev_day": 13.19722992
    },
    {
      "epoch": "2026-03-29T04:16:07.574880",
      "apogee_km": 1187.018298230424,
      "perigee_km": 1184.5403592411303,
      "latitude_deg": 66.51929549635666,
      "longitude_deg": 65.97508319979534,
      "semi_major_axis_km": 7563.916328735777,
      "eccentricity": 0.0001638,
      "inclination_deg": 87.9206,
      "raan_deg": 320.9128,
      "arg_perigee_deg": 94.1985,
      "mean_anomaly_deg": 265.9335,
      "mean_motion_rev_day": 13.19722703
    }
  ]
}